[{"OBJECT_NAME":"KANOPUS-V 4","OBJECT_ID":"2018-014B","EPOCH":"2026-03-09T22:48:00.889056","MEAN_MOTION":15.22813706,"ECCENTRICITY":0.00013304,"INCLINATION":97.365,"RA_OF_ASC_NODE":336.6243,"ARG_OF_PERICENTER":69.4905,"MEAN_ANOMALY":290.6475,"EPHEMERIS_TYPE":0,"CLASSIFICATION_TYPE":"U","NORAD_CAT_ID":43181,"ELEMENT_SET_NO":999,"REV_AT_EPOCH":44963,"BSTAR":0.00051006309,"MEAN_MOTION_DOT":0.00011868,"MEAN_MOTION_DDOT":0},{"OBJECT_NAME":"HAWK-6B","OBJECT_ID":"2023-011A","EPOCH":"2026-03-09T09:51:17.950752","MEAN_MOTION":15.21905453,"ECCENTRICITY":0.00019203,"INCLINATION":40.5121,"RA_OF_ASC_NODE":213.6048,"ARG_OF_PERICENTER":18.2889,"MEAN_ANOMALY":341.7989,"EPHEMERIS_TYPE":0,"CLASSIFICATION_TYPE":"U","NORAD_CAT_ID":55324,"ELEMENT_SET_NO":999,"REV_AT_EPOCH":17263,"BSTAR":0.00033476386,"MEAN_MOTION_DOT":7.596e-5,"MEAN_MOTION_DDOT":0}]
